NORAD_CAT_ID,OBJECT_NAME,OBJECT_TYPE,EPOCH,MEAN_MOTION,ECCENTRICITY,INCLINATION,RA_OF_ASC_NODE,ARG_OF_PERICENTER,MEAN_ANOMALY,BSTAR,MEAN_MOTION_DOT,MEAN_MOTION_DDOT,TLE_LINE0,TLE_LINE1,TLE_LINE2,SEMIMAJOR_AXIS,PERIOD,APOGEE,PERIGEE,DECAYED
52134.0,STARLINK-3721,PAYLOAD,2022-04-01 14:00:01,15.73279893,0.00011,53.2165,77.791,65.3834,144.4754,-0.00084512,-0.00117977,0.0,0 STARLINK-3721,1 52134U 22029AY  22091.58334491 -.00117977  00000-0 -84512-3 0  9998,2 52134  53.2165  77.7910 0001100  65.3834 144.4754 15.73279893  3366,6727.667,91.529,350.272,348.792,0.0
52134.0,STARLINK-3721,PAYLOAD,2022-04-01 20:00:01,15.73207061,0.0001014,53.2165,76.5524,79.0661,107.5463,-0.00016672,-0.00023957,0.0,0 STARLINK-3721,1 52134U 22029AY  22091.83334491 -.00023957  00000-0 -16672-3 0  9992,2 52134  53.2165  76.5524 0001014  79.0661 107.5463 15.73207061  3408,6727.875,91.533,350.422,349.05800000000005,0.0
52134.0,STARLINK-3721,PAYLOAD,2022-04-01 22:00:00,15.7320591,0.0001029,53.2168,76.14,81.5339,217.3116,-0.00022163,-0.00031614,0.0,0 STARLINK-3721,1 52134U 22029AY  22091.91667824 -.00031614  00000-0 -22163-3 0  9991,2 52134  53.2168  76.1400 0001029  81.5339 217.3116 15.73205910  2951,6727.878000000002,91.533,350.436,349.051,0.0
52134.0,STARLINK-3721,PAYLOAD,2022-04-02 12:00:00,15.7318959,9.89e-05,53.2167,73.2555,63.7219,300.7248,0.00026622,0.00036889,0.0,0 STARLINK-3721,1 52134U 22029AY  22092.50001157  .00036889  00000-0  26622-3 0  9999,2 52134  53.2167  73.2555 0000989  63.7219 300.7248 15.73189590  3502,6727.925,91.534,350.455,349.124,0.0
52134.0,STARLINK-3721,PAYLOAD,2022-04-02 20:00:01,15.73194272,9.4e-05,53.2172,71.6039,83.6376,9.7509,-0.00015074,-0.00021714,0.0,0 STARLINK-3721,1 52134U 22029AY  22092.83334491 -.00021714  00000-0 -15074-3 0  9997,2 52134  53.2172  71.6039 0000940  83.6376   9.7509 15.73194272  3564,6727.9119999999975,91.534,350.409,349.144,0.0
52134.0,STARLINK-3721,PAYLOAD,2022-04-02 22:00:01,15.73206377,9.69e-05,53.2174,71.1914,86.5759,119.1031,-0.00039747,-0.00056044,0.0,0 STARLINK-3721,1 52134U 22029AY  22092.91668981 -.00056044  00000-0 -39747-3 0  9997,2 52134  53.2174  71.1914 0000969  86.5759 119.1031 15.73206377  3118,6727.877,91.533,350.394,349.09,0.0
52134.0,STARLINK-3721,PAYLOAD,2022-04-03 04:00:00,15.73170272,9.28e-05,53.2175,69.9561,72.5603,109.7353,-0.00064732,-0.00090378,0.0,0 STARLINK-3721,1 52134U 22029AY  22093.16667824 -.00090378  00000-0 -64732-3 0  9990,2 52134  53.2175  69.9561 0000928  72.5603 109.7353 15.73170272  3611,6727.98,91.535,350.469,349.221,0.0
52134.0,STARLINK-3721,PAYLOAD,2022-04-03 12:00:00,15.73096754,9.29e-05,53.2172,68.307,68.2594,202.885,0.00033782,0.00046846,0.0,0 STARLINK-3721,1 52134U 22029AY  22093.50001157  .00046846  00000-0  33782-3 0  9999,2 52134  53.2172  68.3070 0000929  68.2594 202.8850 15.73096754  3662,6728.19,91.539,350.68,349.42900000000014,0.0
52134.0,STARLINK-3721,PAYLOAD,2022-04-03 22:00:00,15.73140324,0.0001004,53.2176,66.2439,90.3856,21.7815,0.00066015,0.00092818,0.0,0 STARLINK-3721,1 52134U 22029AY  22093.91667824  .00092818  00000-0  66015-3 0  9998,2 52134  53.2176  66.2439 0001004  90.3856  21.7815 15.73140324  3262,6728.065,91.537,350.606,349.255,0.0
52134.0,STARLINK-3721,PAYLOAD,2022-04-04 14:00:01,15.73208404,0.0001133,53.2176,62.9463,84.604,205.3641,0.0003422,0.00047695,0.0,0 STARLINK-3721,1 52134U 22029AY  22094.58334491  .00047695  00000-0  34220-3 0  9999,2 52134  53.2176  62.9463 0001133  84.6040 205.3641 15.73208404  3379,6727.871,91.533,350.49800000000016,348.974,0.0
52134.0,STARLINK-3721,PAYLOAD,2022-04-04 20:00:01,15.73228364,0.0001099,53.2178,61.7079,94.2989,172.3914,0.00078473,0.00111113,0.0,0 STARLINK-3721,1 52134U 22029AY  22094.83334491  .00111113  00000-0  78473-3 0  9992,2 52134  53.2178  61.7079 0001099  94.2989 172.3914 15.73228364  3879,6727.814,91.532,350.4190000000001,348.94,0.0
52134.0,STARLINK-3721,PAYLOAD,2022-04-04 22:00:00,15.7328105,0.0001147,53.2181,61.2958,93.2987,285.6257,0.00018953,0.00026154,0.0,0 STARLINK-3721,1 52134U 22029AY  22094.91667824  .00026154  00000-0  18953-3 0  9997,2 52134  53.2181  61.2958 0001147  93.2987 285.6257 15.73281050  3425,6727.6640000000025,91.528,350.301,348.75699999999995,0.0
52134.0,STARLINK-3721,PAYLOAD,2022-04-05 04:00:00,15.73311534,0.0001162,53.2181,60.0603,82.9934,272.7065,-0.00064045,-0.00089973,0.0,0 STARLINK-3721,1 52134U 22029AY  22095.16667824 -.00089973  00000-0 -64045-3 0  9998,2 52134  53.2181  60.0603 0001162  82.9934 272.7065 15.73311534  3923,6727.5769999999975,91.527,350.224,348.66,0.0
52134.0,STARLINK-3721,PAYLOAD,2022-04-05 14:00:01,15.7325935,0.0001252,53.218,57.9975,87.4587,109.5615,-0.0010352,-0.0014381,0.0,0 STARLINK-3721,1 52134U 22029AY  22095.58335648 -.00143810  00000-0 -10352-2 0  9992,2 52134  53.2180  57.9975 0001252  87.4587 109.5615 15.73259350  3535,6727.726,91.53,350.43300000000005,348.749,0.0
52134.0,STARLINK-3721,PAYLOAD,2022-04-05 22:00:00,15.73146762,0.0001103,53.2181,56.3477,99.4491,186.4363,0.00036248,0.00050441,0.0,0 STARLINK-3721,1 52134U 22029AY  22095.91667824  .00050441  00000-0  36248-3 0  9991,2 52134  53.2181  56.3477 0001103  99.4491 186.4363 15.73146762  3589,6728.047,91.536,350.654,349.17,0.0
52134.0,STARLINK-3721,PAYLOAD,2022-04-06 04:00:00,15.73178293,9.83e-05,53.2178,55.1125,88.3326,174.2108,-0.0003149,-0.00044537,0.0,0 STARLINK-3721,1 52134U 22029AY  22096.16667824 -.00044537  00000-0 -31490-3 0  9994,2 52134  53.2178  55.1125 0000983  88.3326 174.2108 15.73178293  4083,6727.956999999999,91.534,350.483,349.161,0.0
52134.0,STARLINK-3721,PAYLOAD,2022-04-06 12:00:00,15.73169037,7.65e-05,53.2177,53.4627,90.4798,260.9416,0.00033425,0.00046487,0.0,0 STARLINK-3721,1 52134U 22029AY  22096.50001157  .00046487  00000-0  33425-3 0  9997,2 52134  53.2177  53.4627 0000765  90.4798 260.9416 15.73169037  4132,6727.983,91.535,350.36300000000006,349.334,0.0
52134.0,STARLINK-3721,PAYLOAD,2022-04-06 14:00:01,15.73178191,7.72e-05,53.2179,53.0497,98.2055,5.4386,0.00036174,0.00050405,0.0,0 STARLINK-3721,1 52134U 22029AY  22096.58334491  .00050405  00000-0  36174-3 0  9994,2 52134  53.2179  53.0497 0000772  98.2055   5.4386 15.73178191  3694,6727.956999999999,91.534,350.342,349.30300000000005,0.0
52134.0,STARLINK-3721,PAYLOAD,2022-04-06 22:00:00,15.73252201,9.82e-05,53.2183,51.3997,106.4148,86.1403,4.2357e-05,5.342e-05,0.0,0 STARLINK-3721,1 52134U 22029AY  22096.91667824  .00005342  00000-0  42357-4 0  9991,2 52134  53.2183  51.3997 0000982 106.4148  86.1403 15.73252201  3717,6727.746,91.53,350.272,348.951,0.0
52134.0,STARLINK-3721,PAYLOAD,2022-04-07 14:00:01,15.73227019,0.0001112,53.2181,48.1012,100.3954,270.1145,-0.0004921,-0.00069195,0.0,0 STARLINK-3721,1 52134U 22029AY  22097.58334491 -.00069195  00000-0 -49210-3 0  9998,2 52134  53.2181  48.1012 0001112 100.3954 270.1145 15.73227019  3729,6727.818,91.532,350.431,348.935,0.0
52134.0,STARLINK-3721,PAYLOAD,2022-04-07 20:00:01,15.73160974,0.0001147,53.218,46.8634,106.0493,241.1724,0.00078392,0.00110671,0.0,0 STARLINK-3721,1 52134U 22029AY  22097.83334491  .00110671  00000-0  78392-3 0  9993,2 52134  53.2180  46.8634 0001147 106.0493 241.1724 15.73160974  4348,6728.005999999999,91.535,350.64300000000014,349.1,0.0
52134.0,STARLINK-3721,PAYLOAD,2022-04-07 22:00:00,15.73205969,0.0001145,53.2181,46.4516,105.5355,353.9023,0.0003098,0.00043092,0.0,0 STARLINK-3721,1 52134U 22029AY  22097.91667824  .00043092  00000-0  30980-3 0  9994,2 52134  53.2181  46.4516 0001145 105.5355 353.9023 15.73205969  3700,6727.878000000002,91.533,350.51300000000015,348.973,0.0
52134.0,STARLINK-3721,PAYLOAD,2022-04-08 04:00:00,15.73235944,0.0001133,53.2178,45.2163,94.9477,341.2017,-0.00019106,-0.00027387,0.0,0 STARLINK-3721,1 52134U 22029AY  22098.16667824 -.00027387  00000-0 -19106-3 0  9990,2 52134  53.2178  45.2163 0001133  94.9477 341.2017 15.73235944  4401,6727.793000000002,91.531,350.42,348.895,0.0
52134.0,STARLINK-3721,PAYLOAD,2022-04-08 12:00:00,15.73282037,0.0001127,53.2176,43.5658,101.5017,63.6063,-0.00042246,-0.00059697,0.0,0 STARLINK-3721,1 52134U 22029AY  22098.50001157 -.00059697  00000-0 -42246-3 0  9999,2 52134  53.2176  43.5658 0001127 101.5017  63.6063 15.73282037  4453,6727.661,91.528,350.285,348.76800000000014,0.0
52134.0,STARLINK-3721,PAYLOAD,2022-04-08 14:00:03,15.73278257,0.0001122,53.2178,43.1527,106.3159,171.1754,-0.00045179,-0.00063757,0.0,0 STARLINK-3721,1 52134U 22029AY  22098.58336806 -.00063757  00000-0 -45179-3 0  9999,2 52134  53.2178  43.1527 0001122 106.3159 171.1754 15.73278257  3710,6727.672,91.529,350.292,348.782,0.0
52134.0,STARLINK-3721,PAYLOAD,2022-04-08 22:00:00,15.73236558,0.0001154,53.2181,41.503,108.8477,257.47900000000004,-0.0003736,-0.00052805,0.0,0 STARLINK-3721,1 52134U 22029AY  22098.91667824 -.00052805  00000-0 -37360-3 0  9998,2 52134  53.2181  41.5030 0001154 108.8477 257.4790 15.73236558  3705,6727.791,91.531,350.432,348.88,0.0
52134.0,STARLINK-3721,PAYLOAD,2022-04-09 04:00:00,15.731879800000002,0.0001173,53.218,40.2676,97.2608,245.7684,-0.00028121,-0.00039878,0.0,0 STARLINK-3721,1 52134U 22029AY  22099.16667824 -.00039878  00000-0 -28121-3 0  9996,2 52134  53.2180  40.2676 0001173  97.2608 245.7684 15.73187980  4554,6727.929,91.534,350.584,349.005,0.0
52134.0,STARLINK-3721,PAYLOAD,2022-04-09 14:00:01,15.73127843,0.0001312,53.218,38.2043,102.6763,81.4741,-0.00025402,-0.00036007,0.0,0 STARLINK-3721,1 52134U 22029AY  22099.58334491 -.00036007  00000-0 -25402-3 0  9993,2 52134  53.2180  38.2043 0001312 102.6763  81.4741 15.73127843  3726,6728.101,91.537,350.849,349.083,0.0
52134.0,STARLINK-3721,PAYLOAD,2022-04-09 22:00:00,15.73135815,0.000149,53.2179,36.5553,106.3777,166.6037,0.00038666,0.00053845,0.0,0 STARLINK-3721,1 52134U 22029AY  22099.91667824  .00053845  00000-0  38666-3 0  9992,2 52134  53.2179  36.5553 0001490 106.3777 166.6037 15.73135815  3715,6728.078,91.537,350.946,348.941,0.0
